{
  "51790": {
    "noradId": "51790",
    "tle": [
      "1 51790C 22017Y   26054.19284722 -.00015404  00000+0 -96621-3 0   540",
      "2 51790  53.2165  54.1982 0001364  88.2532 223.9279 15.08843789    15"
    ]
  },
  "51791": {
    "noradId": "51791",
    "tle": [
      "1 51791C 22017Z   26054.19631944 -.00015851  00000+0 -99406-3 0   543",
      "2 51791  53.2168  54.1845 0001295  86.1702 184.8555 15.08851883    12"
    ]
  },
  "51792": {
    "noradId": "51792",
    "tle": [
      "1 51792C 22017AA  26054.19770833 -.00018767  00000+0 -11769-2 0   549",
      "2 51792  53.2163  54.1763 0001389  83.9782 294.5988 15.08854639    15"
    ]
  },
  "51793": {
    "noradId": "51793",
    "tle": [
      "1 51793C 22017AB  26054.19076389  .00379080  00000+0  13309-1 0   542",
      "2 51793  53.2205  51.2957 0001606  42.4899 289.0537 15.28490622    16"
    ]
  },
  "51794": {
    "noradId": "51794",
    "tle": [
      "1 51794C 22017AC  26054.19076389 -.00007285  00000+0 -45689-3 0   548",
      "2 51794  53.2157  54.2075 0001364  90.9190 289.9206 15.08842131    16"
    ]
  },
  "51795": {
    "noradId": "51795",
    "tle": [
      "1 51795C 22017AD  26054.19562500  .00004014  00000+0  25171-3 0   543",
      "2 51795  53.2168  54.3857 0001499  87.1851 199.9557 15.08831089    18"
    ]
  },
  "51798": {
    "noradId": "51798",
    "tle": [
      "1 51798C 22017AG  26054.19493056 -.00023364  00000+0 -14652-2 0   547",
      "2 51798  53.2159  54.1902 0001108  86.0607  37.4068 15.08860404    10"
    ]
  },
  "51799": {
    "noradId": "51799",
    "tle": [
      "1 51799C 22017AH  26054.19354167 -.00022709  00000+0 -14240-2 0   542",
      "2 51799  53.2155  54.1953 0001365  87.0417 328.8909 15.08860681    16"
    ]
  },
  "51801": {
    "noradId": "51801",
    "tle": [
      "1 51801C 22017AK  26054.19562500 -.00005559  00000+0 -34881-3 0   546",
      "2 51801  53.2160  54.1863 0001228  98.2497 349.0986 15.08820584    14"
    ]
  },
  "51803": {
    "noradId": "51803",
    "tle": [
      "1 51803C 22017AM  26054.19562500 -.00019537  00000+0 -12252-2 0   546",
      "2 51803  53.2163  54.1892 0001337  90.7010  56.5479 15.08855480    10"
    ]
  },
  "51804": {
    "noradId": "51804",
    "tle": [
      "1 51804C 22017AN  26054.19354167 -.00015443  00000+0 -96867-3 0   542",
      "2 51804  53.2171  34.1977 0001369  89.6078 336.3547 15.08842718    13"
    ]
  },
  "51805": {
    "noradId": "51805",
    "tle": [
      "1 51805C 22017AP  26054.19354167 -.00022558  00000+0 -14147-2 0   548",
      "2 51805  53.2166  34.2744 0001466  91.2033 314.6828 15.08857547    16"
    ]
  },
  "51807": {
    "noradId": "51807",
    "tle": [
      "1 51807C 22017AR  26054.19770833 -.00014605  00000+0 -91610-3 0   547",
      "2 51807  53.2168  44.1777 0001340  89.3453 264.2621 15.08843510    17"
    ]
  },
  "51808": {
    "noradId": "51808",
    "tle": [
      "1 51808C 22017AS  26054.19770833 -.00006510  00000+0 -40824-3 0   545",
      "2 51808  53.2172  44.1771 0001507  94.8579 338.7245 15.08840283    15"
    ]
  },
  "51809": {
    "noradId": "51809",
    "tle": [
      "1 51809C 22017AT  26054.19215278 -.00014447  00000+0 -90603-3 0   541",
      "2 51809  53.2171  44.1644 0001414  91.4596 271.9513 15.08849603    14"
    ]
  },
  "51810": {
    "noradId": "51810",
    "tle": [
      "1 51810C 22017AU  26054.19215278 -.00017673  00000+0 -11084-2 0   542",
      "2 51810  53.2176  34.4231 0001505  89.9137  68.3307 15.08849380    10"
    ]
  },
  "51811": {
    "noradId": "51811",
    "tle": [
      "1 51811C 22017AV  26054.19701389 -.00010697  00000+0 -67090-3 0   544",
      "2 51811  53.2172  44.1804 0001423  90.3202 319.5019 15.08841975    12"
    ]
  },
  "51812": {
    "noradId": "51812",
    "tle": [
      "1 51812C 22017AW  26054.19493056 -.00012707  00000+0 -79702-3 0   541",
      "2 51812  53.2165  34.1909 0001607  86.3891 267.1203 15.08841733    18"
    ]
  },
  "51813": {
    "noradId": "51813",
    "tle": [
      "1 51813C 22017AX  26054.19076389 -.00026790  00000+0 -16800-2 0   544",
      "2 51813  53.2172  34.2384 0001392  92.3264 338.4972 15.08863588    14"
    ]
  },
  "51814": {
    "noradId": "51814",
    "tle": [
      "1 51814C 22017AY  26054.19145833 -.00007423  00000+0 -46557-3 0   541",
      "2 51814  53.2165  34.2067 0001379  89.1155 285.5158 15.08837405    10"
    ]
  },
  "51815": {
    "noradId": "51815",
    "tle": [
      "1 51815C 22017AZ  26054.19145833 -.00005086  00000+0 -31899-3 0   548",
      "2 51815  53.2166  34.2066 0001361  86.4026 268.2217 15.08838807    10"
    ]
  },
  "51816": {
    "noradId": "51816",
    "tle": [
      "1 51816C 22017BA  26054.15604167  .00416630  00000+0  45197-2 0   549",
      "2 51816  53.2175  21.2768 0000897  72.1633 342.0678 15.62462430    12"
    ]
  },
  "51852": {
    "noradId": "51852",
    "tle": [
      "1 51852C 22022A   26054.19631944 -.00017541  00000+0 -11001-2 0   549",
      "2 51852  53.2152  84.1854 0001334  89.9250 176.1129 15.08852629    19"
    ]
  },
  "51854": {
    "noradId": "51854",
    "tle": [
      "1 51854C 22022C   26054.18868056  .00009810  00000+0  54456-3 0   546",
      "2 51854  53.2147  82.9601 0000827 340.7470 194.2191 15.13229233    14"
    ]
  },
  "51855": {
    "noradId": "51855",
    "tle": [
      "1 51855C 22022D   26054.19631944 -.00025177  00000+0 -15791-2 0   546",
      "2 51855  53.2155  84.1062 0001279  89.4686 276.6212 15.08855342    16"
    ]
  },
  "51856": {
    "noradId": "51856",
    "tle": [
      "1 51856C 22022E   26054.19145833  .00012451  00000+0  78100-3 0   547",
      "2 51856  53.2151  84.2170 0001359  90.0293 184.2910 15.08815018    10"
    ]
  },
  "51857": {
    "noradId": "51857",
    "tle": [
      "1 51857C 22022F   26054.19145833 -.00015434  00000+0 -96776-3 0   543",
      "2 51857  53.2154  84.2157 0001297  87.2532 247.1310 15.08856853    19"
    ]
  },
  "51858": {
    "noradId": "51858",
    "tle": [
      "1 51858C 22022G   26054.19284722 -.00021943  00000+0 -13761-2 0   549",
      "2 51858  53.2152  84.1996 0001281  89.7644 237.3982 15.08857960    18"
    ]
  },
  "51859": {
    "noradId": "51859",
    "tle": [
      "1 51859C 22022H   26054.19215278 -.00007120  00000+0 -44648-3 0   540",
      "2 51859  53.2156  74.2127 0001247  87.5015 145.6683 15.08842577    16"
    ]
  },
  "51860": {
    "noradId": "51860",
    "tle": [
      "1 51860C 22022J   26054.19423611 -.00007497  00000+0 -47013-3 0   540",
      "2 51860  53.2153  74.1920 0001296  87.9709 121.7420 15.08842447    13"
    ]
  },
  "51861": {
    "noradId": "51861",
    "tle": [
      "1 51861C 22022K   26054.19562500 -.00002884  00000+0 -18087-3 0   546",
      "2 51861  53.2163  74.1896 0001361  89.2066 208.0425 15.08840599    11"
    ]
  },
  "51862": {
    "noradId": "51862",
    "tle": [
      "1 51862C 22022L   26054.19493056 -.00012302  00000+0 -77141-3 0   548",
      "2 51862  53.2158  74.1919 0001185  92.0796 141.3851 15.08850807    13"
    ]
  },
  "51863": {
    "noradId": "51863",
    "tle": [
      "1 51863C 22022M   26054.18381944 -.00018442  00000+0 -11566-2 0   549",
      "2 51863  53.2161  74.2419 0001399  89.4321 183.6792 15.08853092    17"
    ]
  },
  "51864": {
    "noradId": "51864",
    "tle": [
      "1 51864C 22022N   26054.18729167 -.00010065  00000+0 -63116-3 0   545",
      "2 51864  53.2163  74.1496 0001408  90.4728 181.5484 15.08846466    10"
    ]
  },
  "51865": {
    "noradId": "51865",
    "tle": [
      "1 51865C 22022P   26054.19562500 -.00019568  00000+0 -12272-2 0   546",
      "2 51865  53.2158  74.1878 0001383  84.2690 292.9914 15.08854295    14"
    ]
  },
  "51866": {
    "noradId": "51866",
    "tle": [
      "1 51866C 22022Q   26054.19423611 -.00021131  00000+0 -13248-2 0   549",
      "2 51866  53.2157  74.0502 0001334  84.0579 300.4895 15.08868448    15"
    ]
  },
  "51867": {
    "noradId": "51867",
    "tle": [
      "1 51867C 22022R   26054.19840278 -.00060984  00000+0 -38249-2 0   549",
      "2 51867  53.2159  74.1766 0001102  90.7087 321.7067 15.08891845    16"
    ]
  },
  "51868": {
    "noradId": "51868",
    "tle": [
      "1 51868C 22022S   26054.19284722 -.00011182  00000+0 -70127-3 0   544",
      "2 51868  53.2161  74.2017 0001429  84.1265 258.0315 15.08847106    16"
    ]
  },
  "51869": {
    "noradId": "51869",
    "tle": [
      "1 51869C 22022T   26054.19770833 -.00007565  00000+0 -47440-3 0   540",
      "2 51869  53.2158  74.1771 0001370  88.9003  19.6672 15.08845240    10"
    ]
  },
  "51870": {
    "noradId": "51870",
    "tle": [
      "1 51870C 22022U   26054.19631944 -.00016476  00000+0 -10331-2 0   540",
      "2 51870  53.2157  74.1858 0001383  78.8330 342.1807 15.08855651    13"
    ]
  },
  "51871": {
    "noradId": "51871",
    "tle": [
      "1 51871C 22022V   26054.19354167 -.00024185  00000+0 -15169-2 0   540",
      "2 51871  53.2156  74.1957 0001256  86.6521  19.2913 15.08855150    15"
    ]
  },
  "51872": {
    "noradId": "51872",
    "tle": [
      "1 51872C 22022W   26054.19631944 -.00010638  00000+0 -66749-3 0   541",
      "2 51872  53.2155  74.1862 0001368  87.9279 353.2175 15.08825548    17"
    ]
  },
  "51873": {
    "noradId": "51873",
    "tle": [
      "1 51873C 22022X   26054.19493056  .00033958  00000+0  17399-2 0   546",
      "2 51873  53.2137  71.0146 0001504 112.5539 255.5025 15.16041687    16"
    ]
  },
  "51874": {
    "noradId": "51874",
    "tle": [
      "1 51874C 22022Y   26054.19284722 -.00005050  00000+0 -31671-3 0   549",
      "2 51874  53.2154  74.1984 0001503  88.7125  33.4456 15.08840487    11"
    ]
  },
  "51875": {
    "noradId": "51875",
    "tle": [
      "1 51875C 22022Z   26054.19770833 -.00022243  00000+0 -13951-2 0   546",
      "2 51875  53.2159  74.0918 0001302  86.7465 181.9059 15.08853181    18"
    ]
  }
}